{"type": "FeatureCollection", "features": [ {"type": "Feature", "properties": {"norad_id": 64901, "name": "CO3D 4", "group": "resource", "lat": 7.836755638060579, "lon": -120.92033991261887, "alt_km": 506.81151577117, "timestamp": "2025-12-07T14:37:04.867470+00:00", "meta": {"OBJECT_NAME": "CO3D 4", "OBJECT_ID": "2025-156C", "EPOCH": "2025-12-06T22:03:58.707072", "MEAN_MOTION": 15.20191148, "ECCENTRICITY": 0.00010536, "INCLINATION": 97.4344, "RA_OF_ASC_NODE": 57.3701, "ARG_OF_PERICENTER": 228.7926, "MEAN_ANOMALY": 131.3219, "EPHEMERIS_TYPE": 0, "CLASSIFICATION_TYPE": "U", "NORAD_CAT_ID": 64901, "ELEMENT_SET_NO": 999, "REV_AT_EPOCH": 2032, "BSTAR": 0.00044593821, "MEAN_MOTION_DOT": 9.595e-05, "MEAN_MOTION_DDOT": 0}, "tle": {"line1": "1 64901U 25156C   25340.91942948  .00009595  00000+0  44594-3 0  9995", "line2": "2 64901  97.4344  57.3701 0001053 228.7926 131.3219 15.20191148 20320"}}, "geometry": {"type": "Point", "coordinates": [-120.92033991261887, 7.836755638060579]}}, {"type": "Feature", "properties": {"norad_id": 64902, "name": "CO3D 2", "group": "resource", "lat": -5.681705232655085, "lon": 58.692913379088026, "alt_km": 509.116284261062, "timestamp": "2025-12-07T14:37:04.867480+00:00", "meta": {"OBJECT_NAME": "CO3D 2", "OBJECT_ID": "2025-156D", "EPOCH": "2025-12-06T21:15:57.794976", "MEAN_MOTION": 15.20210595, "ECCENTRICITY": 7.915e-05, "INCLINATION": 97.4344, "RA_OF_ASC_NODE": 57.2359, "ARG_OF_PERICENTER": 99.0952, "MEAN_ANOMALY": 261.0373, "EPHEMERIS_TYPE": 0, "CLASSIFICATION_TYPE": "U", "NORAD_CAT_ID": 64902, "ELEMENT_SET_NO": 999, "REV_AT_EPOCH": 2031, "BSTAR": 2.8087489e-05, "MEAN_MOTION_DOT": 5.41e-06, "MEAN_MOTION_DDOT": 0}, "tle": {"line1": "1 64902U 25156D   25340.88608559  .00000541  00000+0  28087-4 0  9991", "line2": "2 64902  97.4344  57.2359 0000791  99.0952 261.0373 15.20210595 20314"}}, "geometry": {"type": "Point", "coordinates": [58.692913379088026, -5.681705232655085]}}, {"type": "Feature", "properties": {"norad_id": 64903, "name": "CO3D 1", "group": "resource", "lat": -6.518951957274598, "lon": 58.80364959092703, "alt_km": 509.2178600831585, "timestamp": "2025-12-07T14:37:04.867490+00:00", "meta": {"OBJECT_NAME": "CO3D 1", "OBJECT_ID": "2025-156E", "EPOCH": "2025-12-06T21:16:11.137728", "MEAN_MOTION": 15.20207827, "ECCENTRICITY": 9.566e-05, "INCLINATION": 97.4344, "RA_OF_ASC_NODE": 57.2362, "ARG_OF_PERICENTER": 97.127, "MEAN_ANOMALY": 263.0074, "EPHEMERIS_TYPE": 0, "CLASSIFICATION_TYPE": "U", "NORAD_CAT_ID": 64903, "ELEMENT_SET_NO": 999, "REV_AT_EPOCH": 2031, "BSTAR": 0.00020916819, "MEAN_MOTION_DOT": 4.464e-05, "MEAN_MOTION_DDOT": 0}, "tle": {"line1": "1 64903U 25156E   25340.88624002  .00004464  00000+0  20917-3 0  9994", "line2": "2 64903  97.4344  57.2362 0000956  97.1270 263.0074 15.20207827 20318"}}, "geometry": {"type": "Point", "coordinates": [58.80364959092703, -6.518951957274598]}}, {"type": "Feature", "properties": {"norad_id": 66514, "name": "SENTINEL-6B", "group": "resource", "lat": -5.238396005186047, "lon": -4.556650628715408, "alt_km": 1319.2107473143506, "timestamp": "2025-12-07T14:37:04.867501+00:00", "meta": {"OBJECT_NAME": "SENTINEL-6B", "OBJECT_ID": "2025-264A", "EPOCH": "2025-12-05T07:31:22.416096", "MEAN_MOTION": 12.85877769, "ECCENTRICITY": 0.00115488, "INCLINATION": 66.0393, "RA_OF_ASC_NODE": 177.917, "ARG_OF_PERICENTER": 268.4031, "MEAN_ANOMALY": 91.5664, "EPHEMERIS_TYPE": 0, "CLASSIFICATION_TYPE": "U", "NORAD_CAT_ID": 66514, "ELEMENT_SET_NO": 999, "REV_AT_EPOCH": 233, "BSTAR": 0.00030181714, "MEAN_MOTION_DOT": 1.3e-07, "MEAN_MOTION_DDOT": 0}, "tle": {"line1": "1 66514U 25264A   25339.31345389  .00000013  00000+0  30182-3 0  9999", "line2": "2 66514  66.0393 177.9170 0011548 268.4031  91.5664 12.85877769  2335"}}, "geometry": {"type": "Point", "coordinates": [-4.556650628715408, -5.238396005186047]}}]}